ONEWEB-0520             
1 54138U 22138AB  26018.61913436 -.00000017  00000+0 -74655-4 0  9997
2 54138  87.9246 334.7237 0001570  72.1424 287.9880 13.19725779157096
ONEWEB-0521             
1 54139U 22138AC  26018.57648853  .00000108  00000+0  23834-3 0  9992
2 54139  87.9244 334.7160 0002021  79.8974 280.2387 13.19726644157030
ONEWEB-0522             
1 54140U 22138AD  26018.40431513  .00000005  00000+0 -18641-4 0  9997
2 54140  87.9244 334.7516 0001692  74.0364 286.0955 13.19727454157057
ONEWEB-0523             
1 54141U 22138AE  26018.48658123  .00000066  00000+0  13113-3 0  9998
2 54141  87.9230 304.3049 0002190  94.8919 265.2464 13.20769698159545
ONEWEB-0524             
1 54142U 22138AF  26018.55128714 -.00000044  00000+0 -13910-3 0  9998
2 54142  87.9229 304.2937 0001415 110.3099 249.8187 13.20771722159553
ONEWEB-0525             
1 54143U 22138AG  26018.57490806  .00000070  00000+0  14291-3 0  9995
2 54143  87.9238 334.7354 0001582  71.9840 288.1465 13.19725946157093
ONEWEB-0526             
1 54144U 22138AH  26018.60807847  .00000011  00000+0 -39984-5 0  9991
2 54144  87.9244 334.7202 0001664  78.4570 281.6750 13.19725726157075
ONEWEB-0529             
1 54145U 22138AJ  26018.61123724  .00000015  00000+0  41149-5 0  9997
2 54145  87.9233 334.7428 0001551  73.7106 286.4197 13.19725419157091
